{"type":"FeatureCollection", "features": [
{"type":"Feature","geometry":{"type":"Polygon","coordinates":[[[-99.21383423478038,19.497304392386848],[-99.2135847494398,19.498142346132262],[-99.2137483882874,19.498185243229287],[-99.21363131998491,19.499004096153143],[-99.21357536280718,19.503804739946897],[-99.2157805720663,19.505028585680588],[-99.21780065146376,19.506140718540507],[-99.22042794726525,19.507212785867317],[-99.22061749018009,19.507437739238245],[-99.22069459325216,19.50747230791226],[-99.2210479747114,19.507630743638543],[-99.22140135685301,19.50778917866513],[-99.22128127349481,19.50821715819427],[-99.22118127401511,19.50857249542141],[-99.22102153775529,19.509141022371495],[-99.2217486374374,19.50946830516649],[-99.2216773171644,19.509506249285387],[-99.22146383634632,19.509808672256018],[-99.22143997619447,19.50984221795927],[-99.22085592909343,19.51050049376464],[-99.22089649355097,19.510614138070224],[-99.22365406621495,19.512339832914773],[-99.22400069334456,19.51256151605078],[-99.22433486256696,19.512775230600443],[-99.22468122950637,19.512996744820512],[-99.22500394105867,19.51320312941177],[-99.2253515154757,19.513425413376464],[-99.22566734585558,19.513627394987918],[-99.2258076733364,19.51372156109118],[-99.22610877876362,19.51392302569687],[-99.22644794009035,19.51413753238631],[-99.22677160475081,19.51434223689008],[-99.22715723902087,19.514524461849536],[-99.22739460685497,19.514636625393123],[-99.2275371477562,19.514690260931463],[-99.22792518125526,19.514836270098908],[-99.22834280476457,19.515005049838848],[-99.22870679236922,19.515153016492132],[-99.22873873843443,19.515173715187927],[-99.22892521441729,19.51530710963924],[-99.2291246778352,19.515449794112676],[-99.22924075546946,19.51553282905038],[-99.22939000019835,19.515510644552332],[-99.22975964568815,19.515498491663237],[-99.2297975694551,19.51617610018929],[-99.22996472927827,19.518068507239647],[-99.22996761175185,19.518102833538737],[-99.2305209260556,19.51813797096278],[-99.23045950409143,19.518479665382063],[-99.23037783438208,19.518719027569958],[-99.23017273956107,19.51900696067384],[-99.23036025845715,19.51906733059774],[-99.23079515267067,19.518503874683585],[-99.23090128945665,19.518542509716475],[-99.23131337168874,19.518692511705538],[-99.23238250305381,19.519022930377847],[-99.23274420994294,19.519119522104422],[-99.23304684410789,19.519224049667383],[-99.23339047422517,19.51935337468693],[-99.23372490257115,19.519503842679057],[-99.23480517818048,19.519779530737353],[-99.23635816844384,19.520201245385035],[-99.23713324670113,19.520377420341823],[-99.236930404114,19.521020545360216],[-99.23645510565458,19.52252748804189],[-99.23658276769767,19.52248577661695],[-99.238475793141,19.521851859954403],[-99.23853496161703,19.52189783694658],[-99.23864238284403,19.52198130872567],[-99.23877425720612,19.52176353506482],[-99.23886576285507,19.52167715461933],[-99.23898963874518,19.521625573409985],[-99.23981937890974,19.521360935480637],[-99.24186676540899,19.520707920609254],[-99.24198228671278,19.52068156736718],[-99.24211593153487,19.520531265163743],[-99.24219927860096,19.52057459928917],[-99.24224748909582,19.520596143280855],[-99.24341067930148,19.520209659038088],[-99.2440542483363,19.519995821318847],[-99.24471924523631,19.519774860803693],[-99.24476096781592,19.51974485159732],[-99.24576966887744,19.51941110484947],[-99.24572140660355,19.51919885796754],[-99.24589803697666,19.519201556006582],[-99.24605914272614,19.519183708232756],[-99.24619543659603,19.519151203548958],[-99.2463688702773,19.519089267083295],[-99.246574517538,19.518990084378306],[-99.24659491037899,19.518980248987898],[-99.24693094077314,19.51879357971275],[-99.2475476422466,19.518456343540727],[-99.24821110961233,19.518111989797514],[-99.24852701467005,19.51800802835638],[-99.24868500676409,19.51798136820694],[-99.24893120552818,19.517973498804082],[-99.24897317019247,19.517972157428172],[-99.24916839130644,19.51797482669308],[-99.24920037354912,19.51798029480635],[-99.24933886356088,19.518003972847072],[-99.24949375250607,19.518051846580157],[-99.24951867248416,19.5180595489377],[-99.2496537821597,19.518113774926896],[-99.249890744113,19.51820887878391],[-99.25038994387798,19.51841091785156],[-99.25078373962427,19.51858078252042],[-99.25108450287024,19.51870376577003],[-99.2513077629341,19.518803351358706],[-99.252634865715,19.51935680480966],[-99.25293873046991,19.51947978060484],[-99.25324259567927,19.519602755882623],[-99.25364245256044,19.5196815244278],[-99.25389575733955,19.519703201979514],[-99.25422502800059,19.51969245885371],[-99.25425793206558,19.519687702303777],[-99.25438922274375,19.519668723107166],[-99.25459985203321,19.51961554077414],[-99.2548166601738,19.519550597061674],[-99.25504815003083,19.51949477379671],[-99.25509853630801,19.519482623213605],[-99.25536495560623,19.519438175612024],[-99.25567786914307,19.51940247621604],[-99.2558420957276,19.51939930586],[-99.25598268001218,19.519406534296177],[-99.25652497699669,19.519476818343993],[-99.25674104203335,19.51952248685118],[-99.25687336817927,19.51957663316869],[-99.25741427169926,19.52013478344329],[-99.2574996581453,19.520143406499482],[-99.2575850445999,19.520152029515316],[-99.25766532791053,19.520165208244144],[-99.25867242519682,19.52033052284912],[-99.25872400370301,19.52033898927924],[-99.25876660806918,19.520345309529556],[-99.25880921243855,19.520351629769795],[-99.25945065028846,19.520455821349582],[-99.25950447726494,19.520464564593006],[-99.259543999584,19.52047098204456],[-99.25997118823832,19.520540370608707],[-99.26019697181783,19.519471810010273],[-99.26057826258356,19.519527904768783],[-99.2606582268944,19.5195355180604],[-99.26089421242105,19.519489254933617],[-99.26111631625322,19.519474023554285],[-99.26126772256912,19.519501762707744],[-99.26138583432713,19.519605967898663],[-99.2614575977,19.519807914905083],[-99.26152550315484,19.519632862497517],[-99.26166445243648,19.519378371425994],[-99.26194513461118,19.519025499874378],[-99.26195805768246,19.519009092465588],[-99.26203946642782,19.519022173323165],[-99.26249840328585,19.519095923720347],[-99.2625498817221,19.519104195916228],[-99.26260136016339,19.51911246809743],[-99.2630660319439,19.519187148156547],[-99.26322088556529,19.519212035517516],[-99.26364004525625,19.519279374654207],[-99.26371740390744,19.519291813805477],[-99.26380207472467,19.519305426459006],[-99.26415170508926,19.519378436687845],[-99.26413768545558,19.51949814600706],[-99.26413084950858,19.519556515984434],[-99.26412900586978,19.519602672536543],[-99.26412444012267,19.51971697853186],[-99.26732331839986,19.52176097787998],[-99.2674338737269,19.521817255035337],[-99.26826441015758,19.522240025484408],[-99.26942225386179,19.52282940866905],[-99.26929482877524,19.523345914515208],[-99.26940638062256,19.523776150387427],[-99.26943013092124,19.52386774523492],[-99.26973225037577,19.524078116544747],[-99.27069614000507,19.523980801292222],[-99.27220791034586,19.52330358493308],[-99.27335474001575,19.523157451257006],[-99.2731704524702,19.523982669994048],[-99.27363696597175,19.525187123187393],[-99.2859975313115,19.521918482183114],[-99.30175592394686,19.517749299915607],[-99.30877360567258,19.515892276108033],[-99.30934808554136,19.51804032091568],[-99.30932619019605,19.518112924558057],[-99.30966288167922,19.518104765746227],[-99.30976540629146,19.518065677257926],[-99.30982680487395,19.517981260760067],[-99.30984711451583,19.51787097269028],[-99.30975786215858,19.517696017421862],[-99.3096889196923,19.517410774045075],[-99.30972953900643,19.517190197918808],[-99.30986603995628,19.517034312415948],[-99.31012583136615,19.51696901227999],[-99.31048187599427,19.517162966059345],[-99.31104319241662,19.517395479147165],[-99.31149484847552,19.51751144060925],[-99.3119329000209,19.517666337314544],[-99.31231638264694,19.517899153013325],[-99.31272682688233,19.517924385728744],[-99.31335537913057,19.5179843886319],[-99.31409408317722,19.518105364880046],[-99.3149265190547,19.51820394625315],[-99.31545399675488,19.51820302700333],[-99.31622754420071,19.518157218834066],[-99.31671994311338,19.518200814527535],[-99.317048108058,19.518178010901305],[-99.31750505991175,19.51807718036157],[-99.31811426291068,19.517909394996554],[-99.31860587751906,19.517552871248462],[-99.31923817157703,19.5172072122524],[-99.31970666609723,19.517017441219032],[-99.32031597221962,19.516905219934856],[-99.32112472056686,19.51688155721054],[-99.32171084575484,19.5169027442774],[-99.32198055317029,19.516957835967055],[-99.32236747708933,19.51701271837252],[-99.32264864190024,19.516934416772298],[-99.32288256685878,19.51667836991738],[-99.32304574204822,19.516211277004928],[-99.32323266867392,19.51589974201492],[-99.32351345525896,19.515632496274122],[-99.32384108270588,19.51534293759963],[-99.32421568357113,19.515097751441534],[-99.32459032766563,19.51487479308401],[-99.32480082589821,19.514629900124916],[-99.3249172855253,19.514251803977558],[-99.32524455207161,19.513784414250335],[-99.32545495896163,19.513495063398693],[-99.32580611041384,19.51324991616752],[-99.32608720015865,19.513138266455545],[-99.32648550291773,19.513026404804627],[-99.32693077980467,19.512958914689168],[-99.32728219620991,19.512847136022916],[-99.32751635417974,19.512713340361394],[-99.32775028780428,19.512468401573038],[-99.32773805142874,19.51221279430001],[-99.32778444380526,19.511968195123927],[-99.32783083604804,19.511723595931347],[-99.32804116843917,19.51140089925971],[-99.32832202908725,19.51117810328379],[-99.3285562062484,19.511055420582778],[-99.32902478430769,19.510921197115067],[-99.32928242540896,19.510809585131938],[-99.32949295635106,19.510586915348316],[-99.32964452063582,19.51018652357989],[-99.3296909096091,19.509941923910365],[-99.3296903464872,19.509664066812743],[-99.32964283151382,19.50935295227997],[-99.32946629514927,19.5089976154043],[-99.32926651997361,19.508742349564418],[-99.32911376437248,19.50855368393065],[-99.32889050336946,19.50827623171184],[-99.32879644340217,19.50813191640062],[-99.3287961514013,19.507987430668997],[-99.3288544642244,19.507842838432076],[-99.32902985161995,19.50763134735268],[-99.32926384322774,19.50741974947156],[-99.329462626461,19.507185986744187],[-99.32950924001594,19.507052529924433],[-99.33118659448542,19.50260441496179],[-99.33296064086792,19.497899608818223],[-99.33535091801168,19.49459776672262],[-99.33629012554275,19.493336514785426],[-99.3369643667968,19.493084016746526],[-99.33791525385175,19.492785886473047],[-99.33833925490313,19.492706607069096],[-99.33890296001985,19.4926466871294],[-99.3394924055948,19.492527851497705],[-99.33973574880659,19.492635315468807],[-99.33995825802897,19.492674141604525],[-99.34016510569396,19.492644320268745],[-99.34048038565257,19.49252109083905],[-99.34087837729436,19.492373177800758],[-99.34116801870864,19.49235791585159],[-99.34144224476923,19.49239173723657],[-99.34179949187961,19.492548038309803],[-99.34228632598659,19.492831636005526],[-99.3425719099297,19.49334617042471],[-99.34283738038206,19.493915003662604],[-99.34304996289308,19.49437050874211],[-99.343252807938,19.49489500963366],[-99.34357290014503,19.49480682795251],[-99.34369559877673,19.494722437263324],[-99.34379769489318,19.494579822526667],[-99.34384515193099,19.494424364159183],[-99.34386533047416,19.494281904944348],[-99.34385321516342,19.494034566893014],[-99.3438918295133,19.493899907669157],[-99.34396513554336,19.493787161480498],[-99.34407502205796,19.493697364084692],[-99.34425306870581,19.493633800398428],[-99.34437370949361,19.49364097726017],[-99.34450672917372,19.49370373412938],[-99.34466543742471,19.49382945192776],[-99.34507546950366,19.494371525630733],[-99.34540210294331,19.49466740014897],[-99.34559349097543,19.494783561070864],[-99.34579159574749,19.4948479195529],[-99.3461602383744,19.494853688741625],[-99.3463433669323,19.494790707352873],[-99.34648760028999,19.494729376554652],[-99.34658306549942,19.494658669529766],[-99.3466784842005,19.49458727641178],[-99.34678078441665,19.49454176476356],[-99.34691040414842,19.4945026743867],[-99.34708103767849,19.494489399994823],[-99.34734047019072,19.494501849799793],[-99.34765462488265,19.494565983556555],[-99.34793468906656,19.494649603306982],[-99.3481327807142,19.49470748556865],[-99.34828301807127,19.494733091307143],[-99.34848782554369,19.49473917086444],[-99.34865174361666,19.494777697309114],[-99.34880891852276,19.494855078639223],[-99.34894560031644,19.494926025656845],[-99.34907545576354,19.494996985731557],[-99.34918473473085,19.495022669685145],[-99.34920178006621,19.495012925920527],[-99.34924265553778,19.49497400540895],[-99.34927327740873,19.494928630619686],[-99.34930385759611,19.49486383488498],[-99.34936176441997,19.49480869692445],[-99.34943677902176,19.494772946946696],[-99.34953570702346,19.494746861280884],[-99.34962784329429,19.49473697286128],[-99.34968242015964,19.494720683271066],[-99.3497335629292,19.4946946897883],[-99.34981096996387,19.494609263093935],[-99.34990876225062,19.49446236092869],[-99.34999535735066,19.494372734284056],[-99.35008195235552,19.494283107598594],[-99.35015705788408,19.494114778944002],[-99.35020573439304,19.493939344640275],[-99.35022038908332,19.493735349171196],[-99.35027277717849,19.493531280699816],[-99.35038181143211,19.493348572819656],[-99.35045398979034,19.493217299078363],[-99.3505048880972,19.493078016557323],[-99.35054821895075,19.492973150075372],[-99.35057965076228,19.49292574046553],[-99.35064777511917,19.492860871801344],[-99.35070912185182,19.49281867410011],[-99.35084208964464,19.492750442913007],[-99.35097509220896,19.4926983957473],[-99.35109787607794,19.49265607881178],[-99.35115925053691,19.49262682825426],[-99.3512103714672,19.492591123891625],[-99.35127052176595,19.492426896615868],[-99.35131143781544,19.492210976610824],[-99.35145052920682,19.491945811370506],[-99.35164172840781,19.491857141709716],[-99.35195179332605,19.49171918615237],[-99.35206540164523,19.491630666851357],[-99.35216316291722,19.49139010877064],[-99.35225065283521,19.491183908898847],[-99.35237957695462,19.491002155698368],[-99.35249787938872,19.490692880890187],[-99.35255921852256,19.490354284102775],[-99.35252246843426,19.4901041767192],[-99.35232543053412,19.48988381407721],[-99.35220084176595,19.489678026719798],[-99.35222253431891,19.489412737672357],[-99.35241290946298,19.488167171098652],[-99.35341841170877,19.486202602408216],[-99.35456683720997,19.483113969511326],[-99.35488558028244,19.482256704281088],[-99.35610873648238,19.479415541056177],[-99.35751602965507,19.475256008499148],[-99.35864881640134,19.46868748445706],[-99.35922636781027,19.467624404371108],[-99.36141862148379,19.46358905292642],[-99.36744315197411,19.457062987183992],[-99.37146759212031,19.45466042488224],[-99.37504886986028,19.452825845778136],[-99.37697502781243,19.4488836005233],[-99.3777790538062,19.44593670623073],[-99.37964586132009,19.444553754970975],[-99.38226320203864,19.44399386521293],[-99.38577045712579,19.443550843510394],[-99.39359597185502,19.446242400366046],[-99.38489404665263,19.433882907035287],[-99.377590096352,19.423507174183104],[-99.37284779957942,19.423728591575024],[-99.37263784359982,19.42374755594257],[-99.37234908341411,19.423773637932143],[-99.37195489567823,19.4238734977338],[-99.37156060737462,19.423929333786546],[-99.37121267040746,19.423963062689644],[-99.37087618385759,19.423930732881736],[-99.37053959763344,19.423854379542433],[-99.37008703273908,19.42378926774783],[-99.37006207875132,19.423794732664334],[-99.36968121820463,19.42387814055065],[-99.36919422524493,19.42397818328859],[-99.36895091485026,19.424110747132122],[-99.36860359734749,19.424419614257452],[-99.36825635292003,19.424761497914165],[-99.36800181181074,19.42505916995414],[-99.36781684803611,19.42534569494101],[-99.36770178388826,19.425764147542363],[-99.36759792366841,19.426006484938785],[-99.36743591184594,19.42618290529192],[-99.3671461944398,19.42631556065492],[-99.36679854774351,19.426481349924668],[-99.36655911498327,19.42660384256816],[-99.36649772229684,19.426834142258247],[-99.3665067912049,19.427108552539906],[-99.36642942649547,19.427417586297754],[-99.36627903735378,19.42760498794974],[-99.36607054585781,19.42774848352477],[-99.36572301816241,19.427969299413686],[-99.36545627606792,19.428002853844063],[-99.36515483013169,19.42808050079218],[-99.36485348218878,19.428202170156727],[-99.36459848755618,19.42830173439332],[-99.36432038930344,19.42844536774752],[-99.36384493096904,19.428523361627413],[-99.36369421940023,19.428567686702234],[-99.3635435077476,19.4286120116531],[-99.36311457378717,19.42874493858855],[-99.36299212860541,19.42887056907848],[-99.36296410626296,19.428899320359992],[-99.36277903160365,19.42914181739016],[-99.36259402966269,19.42941733142265],[-99.36239720660616,19.42959381686002],[-99.36209617080777,19.429858556191306],[-99.36179498782072,19.430057260653413],[-99.3614938040965,19.43025596462337],[-99.36121550509432,19.430311547448376],[-99.36076336295741,19.430444515840676],[-99.36024178461153,19.430654661365637],[-99.35987099243579,19.43085350078592],[-99.35964218901404,19.430976197309874],[-99.35950019934839,19.431052339458958],[-99.35889733831658,19.43122962476366],[-99.35855609612852,19.431324709021496],[-99.35783065501883,19.431506874940442],[-99.35723924699249,19.431618097518832],[-99.35670581895536,19.431718198481292],[-99.35627694303528,19.431884127409962],[-99.35591181685733,19.43219346412792],[-99.35546056762136,19.432373706470116],[-99.35534326283408,19.432402948783754],[-99.35509453085233,19.43246495362941],[-99.35471523670468,19.43255950475926],[-99.35426158101706,19.432736994813123],[-99.35376545686566,19.43291509241095],[-99.35336674126061,19.43310519155028],[-99.35320964409324,19.43331474852795],[-99.35292629128317,19.43342490744655],[-99.35230693886534,19.433585540088924],[-99.35152907014285,19.433298082139846],[-99.35106598196542,19.432860547108632],[-99.35060533498202,19.43233581808628],[-99.35045489190989,19.432209472643624],[-99.35003713431249,19.431858625897597],[-99.34938486875552,19.431361664970094],[-99.34854847812672,19.43086458653378],[-99.34764276334816,19.430470114717913],[-99.34615714945183,19.43014277967942],[-99.34490423200369,19.43013415849823],[-99.34386073244215,19.430411282802208],[-99.34306082533728,19.43067693520194],[-99.3425971810949,19.430864909270376],[-99.34208662507422,19.430810843069512],[-99.34166848549812,19.43056950298696],[-99.34111122836113,19.43037244655052],[-99.34080776639286,19.430456892265237],[-99.34058980752064,19.430670582037934],[-99.34039323393587,19.43097911303688],[-99.34021967819955,19.431199554312535],[-99.33969788696282,19.431321595209685],[-99.33912948543997,19.431344669516147],[-99.33853804141827,19.431444825603062],[-99.33823597407242,19.431700852105372],[-99.33786943936343,19.432100916197296],[-99.33748147551302,19.432356794373405],[-99.33696578546306,19.432696908938535],[-99.33612017575454,19.43331480135557],[-99.33562189330678,19.43359086827826],[-99.33527433375139,19.43382263232465],[-99.33501953736624,19.434032212930912],[-99.33484610647146,19.434318683689746],[-99.33469587737848,19.43460511150095],[-99.33435025426043,19.435205763708833],[-99.33409446058403,19.435508694870983],[-99.33401805545395,19.43568749232235],[-99.33389178114132,19.435771218711498],[-99.33370873695785,19.43596389475249],[-99.33363447323057,19.436124365468547],[-99.33355589012912,19.436219171295413],[-99.33339833885042,19.436235273522406],[-99.33297320723032,19.436108318690984],[-99.33257658169329,19.43606787247791],[-99.33224729930556,19.436025889493266],[-99.33175592082979,19.43593302099922],[-99.33090802815806,19.436007043119925],[-99.33025777858333,19.436334720567405],[-99.32947236808398,19.43642132012314],[-99.32873163290209,19.436401370227767],[-99.32818625968882,19.436234623277088],[-99.3279541316844,19.43613819953498],[-99.32780773879725,19.43608582404325],[-99.32763108929244,19.436038288501162],[-99.32738884371962,19.435981300217403],[-99.3270961544948,19.435924402522073],[-99.32685396671995,19.435896126117854],[-99.32653612288784,19.43587277096569],[-99.32623838019673,19.43581109552086],[-99.32592039337878,19.43571595778083],[-99.32571840841722,19.435611040442925],[-99.32558194328746,19.43547729265262],[-99.3254857570159,19.435305188919653],[-99.32543502737306,19.435161716342755],[-99.32540433224993,19.434946426060097],[-99.32536868818102,19.434778999153494],[-99.32528752123315,19.43454944295016],[-99.32516087931964,19.434281684554556],[-99.3250394725793,19.434109625724936],[-99.32484249643153,19.433985556583362],[-99.3246405047908,19.433875852549736],[-99.32441332984911,19.433785335105956],[-99.32422660464371,19.433742599653854],[-99.32400464525927,19.43373821052412],[-99.32384333150489,19.433791138369564],[-99.32368710937163,19.43386798425683],[-99.32357123218972,19.43393997264444],[-99.32344515255981,19.433954553706034],[-99.32338962711847,19.433935510826558],[-99.32334409561598,19.433868595599627],[-99.32326819407962,19.43374909446693],[-99.32321761836522,19.43368218818873],[-99.32311659956933,19.433615371693698],[-99.32299543199825,19.433562947353632],[-99.32289447957397,19.433529628786204],[-99.32285226674787,19.43352712053062],[-99.32273808706168,19.433520336006644],[-99.32260689721208,19.433501427396322],[-99.32248074225373,19.433477724292764],[-99.32237469846014,19.433420487211755],[-99.32228875643615,19.43332493075059],[-99.32224817546367,19.433210151911304],[-99.32218740792504,19.433090623437195],[-99.32207605603635,19.432899402890644],[-99.32198487211912,19.43270336104283],[-99.32189389585083,19.432612598762965],[-99.32178268601548,19.43249315957821],[-99.32165139345737,19.43242161044935],[-99.32152021402281,19.43240748647443],[-99.3213789931253,19.432417307453512],[-99.32122265819685,19.432436725976963],[-99.32109156342679,19.4324656706318],[-99.32099583497343,19.43252326538468],[-99.32089519376053,19.4326478651334],[-99.32083996037949,19.43277717003079],[-99.32079465575555,19.43282510464176],[-99.3206888102245,19.432868360750003],[-99.32058795258583,19.43288289526217],[-99.32051240087971,19.43294045412804],[-99.32044194973209,19.433026716685116],[-99.32037156419982,19.43314647727916],[-99.32029609673411,19.43324710499576],[-99.32021548169318,19.433295101764735],[-99.32010451638365,19.43330008293283],[-99.32000350844572,19.433238050118792],[-99.31993778257186,19.433161598702366],[-99.3198365686751,19.432994286155655],[-99.31968482781538,19.432783993443596],[-99.31959376851023,19.43265016104911],[-99.31947236881372,19.43247809836373],[-99.31932579477144,19.432330007151403],[-99.31909330017166,19.432095928669362],[-99.31902258698614,19.432048198399624],[-99.31895692744844,19.432005244677782],[-99.31887619119381,19.431991030148133],[-99.31877025230663,19.431986430750513],[-99.31868455582034,19.43201529394492],[-99.31860393156491,19.432058504563713],[-99.31847297652465,19.43215922891826],[-99.31842270170748,19.432245455310433],[-99.31833707961553,19.43231260185581],[-99.31816063251685,19.432365551202313],[-99.31803963509613,19.43239926141743],[-99.31796408269642,19.432456819235334],[-99.3177724838581,19.432500223834893],[-99.3175254815181,19.432586794252423],[-99.31722299176421,19.432673461309722],[-99.31706167676319,19.432726383150992],[-99.31694576954553,19.432784011029646],[-99.31688545155367,19.432894181816096],[-99.31684532922928,19.43301388824398],[-99.31686582198785,19.433176557963996],[-99.31688135402175,19.433382305437267],[-99.3169019304134,19.433588044097615],[-99.31691750895688,19.433817718752234],[-99.3169278111258,19.433927766234113],[-99.3169432690495,19.4340952301724],[-99.31688810631228,19.434262817408246],[-99.3168227805357,19.434392138725464],[-99.31672205147248,19.434473667247893],[-99.31661114087144,19.43450735892525],[-99.31643470936696,19.43456987750029],[-99.31626854245107,19.434723301665038],[-99.31611259357773,19.434943704252735],[-99.31594139087377,19.435101922345137],[-99.31573490501927,19.43527455802075],[-99.31557879773867,19.435413607695356],[-99.31545782523487,19.43546167253386],[-99.31531147375304,19.435428428648837],[-99.31516518695929,19.43542868271755],[-99.31505423845833,19.43544323169773],[-99.31488268366041,19.43541960212128],[-99.31471098139684,19.435319405354623],[-99.31453419811906,19.435200075405433],[-99.31437923650444,19.435068253750597],[-99.31435566424808,19.43504820143889],[-99.3143320919975,19.43502814912403],[-99.31421081564194,19.434918293627224],[-99.31409970176749,19.43484670410597],[-99.31394314283236,19.434751265843616],[-99.31384720820624,19.43470357718836],[-99.31364029795559,19.43465608027276],[-99.31349394754518,19.43462283490397],[-99.313317377001,19.434613568863448],[-99.31313582633767,19.434637809435433],[-99.31296436431697,19.434662032431785],[-99.31280797115016,19.43465273110497],[-99.31270202149105,19.434643342748455],[-99.31254059316022,19.434638835321437],[-99.31241448443136,19.43463905241957],[-99.31230848905626,19.434605736629493],[-99.31222262538114,19.43454845886681],[-99.31210131421292,19.434419460166474],[-99.31201028754818,19.434299980240286],[-99.31192945933752,19.43423790822141],[-99.31181841998242,19.434204600807092],[-99.31172759453818,19.434190400438503],[-99.3115258393607,19.434200317724617],[-99.31139471398747,19.434214899090808],[-99.31128885586843,19.43425336431755],[-99.31113260899318,19.434320628602467],[-99.31097627089122,19.434340038339855],[-99.31086535003463,19.434368941080578],[-99.31074441327569,19.43443614455772],[-99.31068409957822,19.434551098771813],[-99.3105734241698,19.434709208255896],[-99.31048274406886,19.434771574331],[-99.31038694680136,19.434795665455525],[-99.31023051726702,19.434767220141577],[-99.31004891143154,19.434762744984376],[-99.30987227733739,19.434719977499853],[-99.30975106768422,19.43464361706772],[-99.30960955377472,19.434500294782683],[-99.30949838776228,19.43439998975702],[-99.30939733775665,19.43431402379081],[-99.30927621016282,19.434280732011228],[-99.30917525997182,19.434247405783193],[-99.30910955680079,19.43418052127411],[-99.30905895952729,19.43409925464719],[-99.30892259056756,19.43400856308266],[-99.30882151396644,19.433908240456685],[-99.3087758436636,19.433764754407658],[-99.30878579663414,19.433692955604517],[-99.30874032538823,19.433654749284635],[-99.30867467688591,19.43361657726537],[-99.30858887825894,19.43359279585327],[-99.30847791228256,19.4335977699215],[-99.30841731721527,19.433564374678344],[-99.3083616580981,19.43347354552854],[-99.30819001596828,19.43340205514744],[-99.30815955150445,19.43329682677891],[-99.30813419456798,19.433225087944326],[-99.30807866206352,19.433201254907946],[-99.30799789902242,19.433172679206674],[-99.3078969227131,19.433124995920256],[-99.30780101781316,19.433091660354],[-99.30770010470115,19.433077475061392],[-99.30757898736606,19.433048967571047],[-99.30724047912982,19.432762413279843],[-99.30716462578336,19.432662047003248],[-99.30712917181147,19.432585539642414],[-99.30707363067334,19.43255692084771],[-99.30698279753175,19.432537932639907],[-99.30690716019636,19.432552416911996],[-99.3067962397908,19.43258131716513],[-99.30669030973509,19.432581496162932],[-99.30660449396724,19.432548142910054],[-99.30653894516699,19.432562609989247],[-99.30646835206645,19.432577085561093],[-99.3064229175696,19.43255802042215],[-99.30634713660179,19.43249593734971],[-99.30624617912183,19.432457824018332],[-99.3061301157374,19.432434092484392],[-99.30604929065495,19.432372017791007],[-99.3059987313158,19.432309892045563],[-99.30594810032498,19.43220948272634],[-99.30584178530299,19.432003887093156],[-99.30576596003354,19.43191787654246],[-99.30569779973415,19.431884493113486],[-99.30562963946228,19.431851109658368],[-99.30554370794941,19.43175554510498],[-99.30547786410725,19.431612092103443],[-99.30537678215308,19.431506982038332],[-99.30525563954643,19.43146411663491],[-99.30512447998979,19.431459551671338],[-99.30485217953127,19.43150786374978],[-99.30447395841051,19.43156113856307],[-99.30434287010084,19.43159485660269],[-99.30424711829015,19.431642871711777],[-99.3041513307891,19.431671744987153],[-99.30402017998908,19.431671964673626],[-99.30385370155639,19.431662672477813],[-99.3036469535403,19.431698909370326],[-99.30357637387593,19.431720561986488],[-99.30343026798575,19.431816515476687],[-99.30329931249817,19.43192201446032],[-99.30316827692329,19.431984444334805],[-99.30306244486187,19.43203726111896],[-99.30300194908168,19.432056503948267],[-99.30285054989908,19.432018472900292],[-99.3027394960917,19.43197558898556],[-99.3025981944461,19.431942326346825],[-99.30245195489171,19.431966497360015],[-99.30228559132685,19.43201941453498],[-99.30212419228425,19.432029254143806],[-99.30202326258278,19.432005494784722],[-99.30186686359964,19.431991398538614],[-99.30180130573707,19.432001078463824],[-99.30170054399595,19.43206824241419],[-99.30162501239123,19.432140149851325],[-99.30155458682758,19.432245547005607],[-99.30149432038833,19.432389210951314],[-99.30146933737942,19.43251845989959],[-99.30149477959924,19.432638054178064],[-99.30157059415353,19.43271928108535],[-99.30169180746095,19.43280043251403],[-99.30185337528775,19.43288151676036],[-99.3019696330033,19.43301053084869],[-99.30202540344338,19.433163572812834],[-99.30202065107734,19.43332150092534],[-99.30197041138561,19.433431650104197],[-99.30185955136174,19.433494045479883],[-99.30170822179532,19.43349429706807],[-99.30159722027508,19.433480125147543],[-99.3014760683205,19.433432471791328],[-99.30133965108566,19.433313061780833],[-99.30121333149283,19.4331984203697],[-99.30105658750654,19.432997691026248],[-99.30094541888793,19.432892595214113],[-99.30064735602116,19.432649030578695],[-99.30048069190987,19.43253924091295],[-99.30038980670318,19.43249153671264],[-99.30036504235149,19.43249055630368],[-99.30027377927013,19.432486943212123],[-99.30016787558773,19.4325014747448],[-99.30010241410348,19.432563793979924],[-99.30004711146425,19.43266438009454],[-99.30004228688371,19.43278402461213],[-99.30006260470171,19.432860558414855],[-99.30014849847115,19.432936983798506],[-99.30027479953186,19.43304205507277],[-99.30033044524242,19.4331281013225],[-99.30035077203794,19.43320942053452],[-99.30031061107842,19.433314767130224],[-99.30020993584783,19.433429784730162],[-99.3000740293362,19.433587929670228],[-99.29999864570443,19.43374118903153],[-99.2999131996247,19.433908821369908],[-99.29987295037431,19.433966313400656],[-99.29980733889852,19.43394727993597],[-99.2997568077528,19.43389950877735],[-99.29970618884423,19.433803883136388],[-99.29966040365449,19.433593398427217],[-99.2995844667689,19.4334451744646],[-99.29947319350921,19.433282652381866],[-99.29939237048714,19.433220574701853],[-99.29920045877999,19.433096469118563],[-99.29906413982762,19.43302969728979],[-99.29892283797288,19.43299643179624],[-99.29877656188303,19.433001458075225],[-99.29867072770985,19.433054272320902],[-99.29856998150404,19.433131005446892],[-99.2984946666045,19.433322547787842],[-99.29843956378335,19.433533198713448],[-99.29836414367327,19.433667315627225],[-99.29819791676528,19.4337967962461],[-99.29801646929337,19.43387844708565],[-99.29784502306043,19.43391222671655],[-99.29771382678108,19.433888514632823],[-99.29744131081775,19.433821964920032],[-99.29718398029004,19.43378410270702],[-99.29699737487923,19.433803549969863],[-99.29683092066149,19.433808607703348],[-99.29657359028363,19.433770744622795],[-99.2962406297986,19.433752146469722],[-99.29611706107553,19.433761919016668],[-99.29604141347248,19.433771613331295],[-99.29599356170017,19.433809975066907],[-99.29596339107796,19.43386266434966],[-99.29591069429321,19.434011099600337],[-99.29584784806552,19.434126053140027],[-99.29578241892646,19.434207512629698],[-99.29571440258037,19.434253085342892],[-99.29566902512721,19.43426512291921],[-99.2955642967399,19.434275035665475],[-99.29554041595951,19.434277296019342],[-99.29545727512865,19.43432767872421],[-99.2953691677693,19.43442113863492],[-99.29527355000245,19.43454571622619],[-99.2951880208069,19.434670277360645],[-99.29511257156081,19.43479003660407],[-99.29506996676766,19.434940847930502],[-99.29503487227517,19.435060541533588],[-99.29502740943309,19.435117979210187],[-99.29502255520003,19.435223267267446],[-99.29504804070343,19.435369182434908],[-99.2950534654076,19.435579733943676],[-99.29502598057293,19.435723342477342],[-99.29498576803744,19.43580236795667],[-99.29497196443272,19.435818967387313],[-99.29493794998739,19.435859871207537],[-99.29489515470239,19.43590540263077],[-99.29481954489559,19.435936630962967],[-99.29473630801898,19.43593437341651],[-99.29465309704082,19.435946472175427],[-99.29459012405582,19.435992036283047],[-99.29455742175482,19.436039943976592],[-99.29448699426045,19.436147731150164],[-99.29446316189541,19.436177772634792],[-99.29443932952164,19.436207814116354],[-99.29437618554056,19.43624122740963],[-99.29428541638765,19.436258123721988],[-99.29421227678574,19.436260635026898],[-99.29416189734273,19.436296607648863],[-99.29413173429484,19.436354082074452],[-99.29412426246523,19.43640673426279],[-99.29414456937822,19.43647848328038],[-99.29420536524455,19.436624341323615],[-99.29423830913589,19.4367104262282],[-99.29423334229703,19.43675350343459],[-99.2942081977584,19.436796613350126],[-99.2941754693307,19.436830164631424],[-99.29414522001383,19.43683978458122],[-99.29408215176835,19.43683270859073],[-99.29402408918938,19.43680408989186],[-99.29393065107787,19.43673963750508],[-99.29380944290195,19.43666087364019],[-99.29376401299598,19.436644198060492],[-99.29361515529769,19.436618118893914],[-99.29349402044974,19.43658003112226],[-99.29338504595302,19.436495368979962],[-99.2933009033846,19.43642999862373],[-99.29311764067266,19.436355423715213],[-99.29302975640705,19.43635825521856],[-99.2929418721378,19.43636108667939],[-99.29274473625878,19.436556464732504],[-99.2922349663849,19.435694629205326],[-99.29227335398724,19.435648803149004],[-99.2924419523627,19.435579290004718],[-99.29241667300734,19.435271205694452],[-99.29217134700527,19.434626869144502],[-99.29196702862065,19.434156196335167],[-99.29182013280466,19.433936374432243],[-99.29163270080642,19.433805412917835],[-99.29131641269291,19.433065159871745],[-99.29092295487676,19.433170212480228],[-99.29074364477816,19.43323819391831],[-99.29062567614254,19.43329575474742],[-99.29051644877102,19.43341067343005],[-99.29053181127473,19.43353356257477],[-99.29037559551828,19.43358082766256],[-99.29030858935991,19.433506871815503],[-99.29011611039913,19.433436580637824],[-99.28990601377656,19.43345536130802],[-99.28985427957934,19.433512815845475],[-99.28948874296604,19.43389264744961],[-99.28930531579041,19.433913796018782],[-99.28915198407832,19.433994016204842],[-99.28915216193046,19.434094498424386],[-99.28849673592457,19.434424793066718],[-99.2881549098484,19.434597051451284],[-99.28789978003715,19.434725620218334],[-99.28772872057478,19.434811823217792],[-99.28736571572952,19.43499475191192],[-99.28721337594344,19.435071520021275],[-99.2870554216796,19.435157817068426],[-99.28681449346186,19.435289445831653],[-99.28644570286299,19.435490929922313],[-99.28612009268004,19.435668821904112],[-99.28599295961928,19.4358195797121],[-99.28591824456124,19.435709908891774],[-99.28003188743244,19.438880217491786],[-99.27995674842576,19.43872734161552],[-99.27974569246253,19.438439280773537],[-99.27952739011101,19.43814132830855],[-99.27929110410541,19.43780171176088],[-99.27923902618215,19.437726859337126],[-99.27917768100612,19.437685450997865],[-99.27909509635694,19.43762741944843],[-99.27901398583738,19.437567459929515],[-99.27882321634242,19.437211871282816],[-99.27889094557828,19.437087464195653],[-99.27878107935877,19.436955022546424],[-99.27859648481622,19.4367289015913],[-99.27831242394349,19.43638090347405],[-99.27779440702804,19.435797775368517],[-99.27783742188325,19.43550923837573],[-99.27785918142534,19.435362615530618],[-99.27753191128409,19.43480415447219],[-99.27746336954847,19.43473614132437],[-99.27712348636952,19.434208602731278],[-99.27636666325762,19.43292708417994],[-99.27624255122066,19.432808829965754],[-99.27594702557197,19.432364063017776],[-99.27571355379793,19.432012685236504],[-99.27493914949234,19.430806243858058],[-99.27406063745569,19.42943776947668],[-99.2739126350687,19.429202628993632],[-99.2731083610146,19.427908972848407],[-99.273046721601,19.427785539172877],[-99.27303039875525,19.427752852464508],[-99.2725280498264,19.42674688423393],[-99.27223471215974,19.42700866614237],[-99.27186539260883,19.427336785052304],[-99.27156891520151,19.427559771630737],[-99.27125246415598,19.427797779578484],[-99.27100400082037,19.427986413727535],[-99.27081092194102,19.4281405035811],[-99.27063295641948,19.42828461515492],[-99.27059710791974,19.428087283605105],[-99.27054002559132,19.42777104103926],[-99.2701121094279,19.428048772886164],[-99.2671508939601,19.429099956591628],[-99.26685291087256,19.429457539171718],[-99.26542117679232,19.431112969969785],[-99.26421278617693,19.43242663063841],[-99.26402800979729,19.43255281527849],[-99.26394836299848,19.431643543074465],[-99.26371782471118,19.431123699621462],[-99.2633350973739,19.43071237572932],[-99.26292641774214,19.430287855541934],[-99.26257066312333,19.430009406151473],[-99.26141599765852,19.429118613276984],[-99.26116958389964,19.42893303839626],[-99.26088038473429,19.428747784919455],[-99.2604428278244,19.4283676568819],[-99.26006022244032,19.428375175006266],[-99.25990331994701,19.428283431719503],[-99.25963613255591,19.428129540182297],[-99.25961691162776,19.428120783697384],[-99.25877170054778,19.427735727628917],[-99.25859924187571,19.427761477649305],[-99.25805891598472,19.42749232575103],[-99.25792201624064,19.427337369020986],[-99.25790610555208,19.4272450566979],[-99.25789019488212,19.427152744372243],[-99.25766746883865,19.427011980727944],[-99.25740819370363,19.42702725768615],[-99.25730665531056,19.427033240409642],[-99.25715923227689,19.427157937361937],[-99.2567670818072,19.42716771490565],[-99.25615071550362,19.426953697507233],[-99.2560566598913,19.42650870594926],[-99.25563876898873,19.42483481782868],[-99.25383346184691,19.42361257314657],[-99.25246116251543,19.422930778906018],[-99.2519994056584,19.42315062485564],[-99.25144463805525,19.42340408964415],[-99.25120734977054,19.423520109568162],[-99.25098609215053,19.42362697348703],[-99.25081928926454,19.423669827141467],[-99.25062354453958,19.42367314190572],[-99.250318623643,19.423630939269998],[-99.25006176181238,19.42361912645318],[-99.24980222982343,19.423692718292074],[-99.24945149159409,19.423779750460294],[-99.24889734935341,19.42393363780946],[-99.24784860759544,19.4242401855288],[-99.24734179000339,19.424377879694585],[-99.24689914282355,19.42450939618665],[-99.24654625581475,19.424579898311695],[-99.24637144504028,19.42463083498994],[-99.24634337598371,19.424639012823942],[-99.24631530692545,19.424647191426637],[-99.24592061037637,19.424656859915707],[-99.24556432146909,19.424599496291798],[-99.24513421609856,19.4245361425972],[-99.24481011370843,19.42454266884646],[-99.2445534964734,19.424613038458006],[-99.2444059996189,19.424692394419612],[-99.24412473521129,19.424746254076194],[-99.24393557445521,19.424797656573872],[-99.24385005116591,19.424795768099035],[-99.24382343736481,19.424767431402874],[-99.24359386140543,19.424522992828813],[-99.24337863007108,19.424371055665045],[-99.2431249543054,19.424261792926778],[-99.24291609653552,19.424079401517176],[-99.2428290912613,19.42383595665445],[-99.2428157939115,19.423525433862054],[-99.24285375467001,19.423156996722593],[-99.24304586452952,19.42286751112239],[-99.242374091621,19.422964073652388],[-99.24189666288187,19.42307208191643],[-99.24156456835821,19.423147350279834],[-99.24126691039689,19.423266297394242],[-99.24125447468182,19.42320869829027],[-99.24124747291881,19.423085763765435],[-99.2412849645701,19.423002942335923],[-99.24209271832572,19.422720970271083],[-99.24283093366752,19.422165884721867],[-99.24474312591057,19.419654384007725],[-99.24455733253633,19.419640192812633],[-99.24450317906432,19.419582812684062],[-99.2443085328743,19.41958102270776],[-99.24420478143931,19.419620148220513],[-99.24404693789049,19.419642931209285],[-99.24389007150418,19.419493499650883],[-99.24372796567293,19.419217991512205],[-99.24359567588874,19.41928010854623],[-99.24330193929896,19.418952442299094],[-99.24308086260142,19.418628538968893],[-99.24279107785648,19.418135699755023],[-99.24184315145466,19.416367014725648],[-99.24175365558251,19.416243285551364],[-99.24053313947539,19.414043182916622],[-99.24011142938481,19.414226937536423],[-99.24005014848835,19.41425363976468],[-99.23996080321105,19.414022178621682],[-99.23974860543522,19.413472448431776],[-99.23968923104823,19.41310817674835],[-99.23959317680435,19.413073043763774],[-99.23946606369347,19.412976247224872],[-99.239340140113,19.412843533837563],[-99.23913728662082,19.41272234847386],[-99.23896199905118,19.412683981014954],[-99.23884623348776,19.412662664282564],[-99.23862618140727,19.41254248284193],[-99.23821107592596,19.41253715712278],[-99.2381993480473,19.412385895787953],[-99.23811597038643,19.412310435163796],[-99.23803868667295,19.412276186470812],[-99.23803613608747,19.412089766908515],[-99.23741010308255,19.41228991261955],[-99.2371964980729,19.41239449570843],[-99.237029478868,19.41251007169436],[-99.23682874019107,19.41271984566575],[-99.23637567894045,19.4137004596358],[-99.23616969134169,19.414112337562155],[-99.23582943788102,19.41453418982552],[-99.23544843034107,19.415348103795242],[-99.23515969178708,19.415681685874375],[-99.23490171455568,19.415858423917964],[-99.23455091410216,19.416133283845475],[-99.23436538080918,19.41640792995329],[-99.23400955387625,19.416780797694607],[-99.23390116636794,19.41682993847452],[-99.23364807055022,19.416810663715104],[-99.23353446227571,19.416820610042954],[-99.23349833072378,19.416835356846153],[-99.23352447587366,19.417060728693237],[-99.23346260493572,19.417134309999675],[-99.23342700493629,19.417521465106233],[-99.23342686692344,19.417544196893964],[-99.2334228195904,19.418207487024635],[-99.2333351736515,19.418315402229158],[-99.233118871203,19.41874689033223],[-99.23306754540968,19.41897236161199],[-99.23303693424859,19.419237007237594],[-99.23278923672454,19.419384328390027],[-99.23253134866458,19.419629664602112],[-99.23227340413852,19.419835799581623],[-99.23215987716813,19.419904546371193],[-99.23183988520925,19.420061758862612],[-99.2316747936797,19.420189372571457],[-99.2315203367355,19.42053257773564],[-99.23144832135507,19.420738474442672],[-99.23117991942739,19.42085641909018],[-99.23101478503509,19.42095463155167],[-99.23088104052275,19.421337010751248],[-99.23096395411994,19.421532910004597],[-99.23074733689286,19.42174879049069],[-99.23052025127333,19.421866681671123],[-99.22984882601942,19.42186753266046],[-99.2296115200691,19.42206383751589],[-99.22920920031557,19.422446554840146],[-99.22904403566045,19.422525165088533],[-99.22888933773524,19.42270176433195],[-99.22874506515781,19.422946951945697],[-99.2285906131998,19.423299954819722],[-99.2284875626678,19.423476488698377],[-99.22823962196414,19.42345720001723],[-99.2279400190484,19.423428175615605],[-99.22779548491788,19.42348715837185],[-99.22770299522543,19.423830282524477],[-99.2277239141306,19.424016460717482],[-99.22757954314146,19.424193045891094],[-99.22729033688509,19.424213008565264],[-99.22693919274607,19.42426244889221],[-99.2268360038194,19.42434097968104],[-99.22661963557309,19.424743059368197],[-99.22636182479984,19.425056988364013],[-99.22615646234024,19.425949065354242],[-99.22602248561685,19.426174637493077],[-99.22584737849007,19.426537463928717],[-99.22565653887797,19.426728805701014],[-99.22567228412557,19.426910090402707],[-99.22562586703935,19.426959149240403],[-99.2256543454275,19.427010565061565],[-99.22568282383368,19.427061980877752],[-99.22530616568376,19.427341755218364],[-99.2244981150129,19.427080047727447],[-99.22448207473701,19.427105325724934],[-99.22414613020996,19.427634756887905],[-99.22385983907003,19.427865186208074],[-99.2235244856175,19.428493079676656],[-99.22297331672469,19.428493757394094],[-99.22297346266734,19.42860012941906],[-99.22297360925141,19.428708146137282],[-99.22314500736475,19.429100110733803],[-99.22333837458427,19.429434529099698],[-99.2235426229951,19.42966435380893],[-99.22327818149823,19.429753572248238],[-99.2233234071935,19.430236257151197],[-99.22244670729965,19.430340241118074],[-99.22076667566424,19.431121413134466],[-99.2208166819025,19.431239788308073],[-99.22136939363426,19.43254819648477],[-99.2227388094197,19.433885290964323],[-99.22275470855774,19.43390081283445],[-99.22291997194517,19.433832632960392],[-99.22710878322135,19.436057235749868],[-99.22857180464666,19.436779429866224],[-99.22965663213759,19.437313259272567],[-99.22973956042708,19.43728691908146],[-99.23010425238942,19.437034598805386],[-99.23048438455146,19.436776857327864],[-99.23056640632436,19.436717061039943],[-99.23093868616299,19.43644565667405],[-99.23132083597292,19.436187122977074],[-99.23171146772239,19.435916482080245],[-99.23208512622206,19.43566602159168],[-99.23211123021994,19.436082261823813],[-99.23345328183777,19.43742665942702],[-99.233612671937,19.43863368770129],[-99.23393995138859,19.439114022714513],[-99.23409246141816,19.439125614123114],[-99.23394283534391,19.43956700890926],[-99.2370920144476,19.440187392076176],[-99.23566170978516,19.443105169873526],[-99.23505731833369,19.44333954036213],[-99.23470673640843,19.443360357344023],[-99.2332621157281,19.443891662248546],[-99.23267551197931,19.443987443489892],[-99.2317880545828,19.443852825015213],[-99.23098667404744,19.443867422430202],[-99.23074364135967,19.44404421234257],[-99.2301429161116,19.44427575773991],[-99.22915564594733,19.444399186280357],[-99.22855531617179,19.444915810126737],[-99.22794017895234,19.445079489233677],[-99.22679619959865,19.44571896842127],[-99.22599546694458,19.44620868336981],[-99.22523873000554,19.447472140048692],[-99.22466722286589,19.448151620497583],[-99.2243527426483,19.448416730681746],[-99.22371572982841,19.448684258466567],[-99.22251465230262,19.449070615533255],[-99.22200706715415,19.449410623334757],[-99.22168644787158,19.45042917303986],[-99.2216371049478,19.45097903839215],[-99.22173809588433,19.451576233992792],[-99.22160780463621,19.451771097118648],[-99.2201632734739,19.452458417116258],[-99.21998023593272,19.452536639839554],[-99.21987536845776,19.45258145531022],[-99.21915526283988,19.452617601295927],[-99.21843513712926,19.452607225978845],[-99.21829466666688,19.452611037220294],[-99.2181093450032,19.452248076751424],[-99.217984250743,19.452273258700064],[-99.2178775904182,19.452290252894805],[-99.21781282303796,19.452610785396047],[-99.21676083559358,19.45263172273228],[-99.21655931563923,19.452626341446425],[-99.21632167196354,19.453187754586946],[-99.21630072666183,19.453268747376796],[-99.21626335909113,19.453413240480668],[-99.21624344507062,19.45349024444323],[-99.21620504606068,19.453638726351627],[-99.21594540185292,19.454499203525568],[-99.21533691887413,19.45600662610324],[-99.21523013494695,19.45645943422036],[-99.21514690454009,19.45663855582839],[-99.21434803292796,19.458357798629358],[-99.2142617128298,19.458614455274905],[-99.21413102898788,19.459003018370666],[-99.21409830883229,19.45922221930174],[-99.21398067163103,19.460130316188334],[-99.21392820371447,19.46039337282285],[-99.21386240924464,19.46056251847276],[-99.21266993266742,19.462417407594064],[-99.21354856883141,19.462882877207573],[-99.2123713508573,19.46633136806331],[-99.21213630803791,19.46707992542508],[-99.21177648910052,19.46706782262949],[-99.21147416486455,19.46795747244053],[-99.21113746042316,19.468114284527722],[-99.21080770413016,19.46837766288765],[-99.21015502032246,19.4690828704593],[-99.21009261640143,19.469257656745903],[-99.20908980658768,19.46986682424024],[-99.20883603639687,19.469986048690696],[-99.20868897565752,19.470055139446863],[-99.20770154101135,19.46971500705517],[-99.20747499942188,19.4706795797684],[-99.20679894248812,19.47119381792547],[-99.20702504777576,19.471257367761844],[-99.20777855002324,19.471469146979977],[-99.20801795752598,19.47153643374334],[-99.20838357804072,19.471639193378603],[-99.2089677887958,19.471803386710416],[-99.20960583303605,19.471982707486372],[-99.21003710238496,19.47209670022293],[-99.21081646395643,19.472302696569848],[-99.21142203117792,19.47246275413702],[-99.2120362302779,19.472618580806795],[-99.2126504305319,19.47277440538126],[-99.21331084678138,19.472930173465613],[-99.21356816452519,19.472988214819924],[-99.21391842260734,19.47306721620402],[-99.21423057615668,19.473146407008414],[-99.21453262628825,19.473223034358217],[-99.21519309568451,19.473416366099787],[-99.21557289717495,19.47353016979545],[-99.21587999179661,19.473622187474202],[-99.21951697490498,19.474593733116077],[-99.21973043579369,19.47465075106449],[-99.221117345227,19.474980937576525],[-99.221005414993,19.475665189714977],[-99.22096674253523,19.475901600946173],[-99.2204019817266,19.478144000828532],[-99.22036914689933,19.478237115810035],[-99.2197557277341,19.47997672086757],[-99.21969583692884,19.480146560917333],[-99.21911441309406,19.481813191780187],[-99.21861568922421,19.483242730783065],[-99.21834321857395,19.484061869300973],[-99.21816206883128,19.484606464543003],[-99.2172463981885,19.487359190334125],[-99.21721426922103,19.487455779811178],[-99.2169107339549,19.488293519073423],[-99.21660209060094,19.489175336272634],[-99.21631909308122,19.489929802035025],[-99.21605678013395,19.490708727290922],[-99.21574446185012,19.491590280667577],[-99.21545712734415,19.492401305282435],[-99.2154154282103,19.492519004183453],[-99.21480531943857,19.494270122316802],[-99.21434000569889,19.49560562732287],[-99.21383423478038,19.497304392386848]]]},"properties":{"ID":1054,"ENTIDAD":15,"MUNICIPIO":58,"NOMBRE":"NAUCALPAN DE JUAREZ","CONTROL":0,"GEOMETRY1_":""}}
]}